{"type": "FeatureCollection", "features": [{"type": "Feature", "properties": {"norad_id": 66514, "name": "SENTINEL-6B", "group": "last-30-days", "lat": -45.90851739161887, "lon": 0.9376573118176961, "alt_km": 1336.4579339178836, "timestamp": "2025-12-16T23:36:34.922125+00:00", "meta": {"OBJECT_NAME": "SENTINEL-6B", "OBJECT_ID": "2025-264A", "EPOCH": "2025-12-12T06:01:21.430272", "MEAN_MOTION": 12.81479576, "ECCENTRICITY": 0.0007847, "INCLINATION": 66.0385, "RA_OF_ASC_NODE": 163.4531, "ARG_OF_PERICENTER": 270.1745, "MEAN_ANOMALY": 89.8371, "EPHEMERIS_TYPE": 0, "CLASSIFICATION_TYPE": "U", "NORAD_CAT_ID": 66514, "ELEMENT_SET_NO": 999, "REV_AT_EPOCH": 322, "BSTAR": 0.00018864317, "MEAN_MOTION_DOT": -1.7e-07, "MEAN_MOTION_DDOT": 0}, "tle": {"line1": "1 66514U 25264A   25346.25094248 -.00000017  00000+0  18864-3 0  9993", "line2": "2 66514  66.0385 163.4531 0007847 270.1745  89.8371 12.81479576  3220"}}, "geometry": {"type": "Point", "coordinates": [0.9376573118176961, -45.90851739161887]}}, {"type": "Feature", "properties": {"norad_id": 66516, "name": "STARLINK-35924", "group": "last-30-days", "lat": -42.794246299989595, "lon": -66.8699804232757, "alt_km": 446.4833428998063, "timestamp": "2025-12-16T23:36:34.922175+00:00", "meta": {"OBJECT_NAME": "STARLINK-35924", "OBJECT_ID": "2025-265A", "EPOCH": "2025-12-16T06:00:02.999808", "MEAN_MOTION": 15.40684171, "ECCENTRICITY": 0.00013607, "INCLINATION": 43.0007, "RA_OF_ASC_NODE": 33.893, "ARG_OF_PERICENTER": 253.6364, "MEAN_ANOMALY": 257.2486, "EPHEMERIS_TYPE": 0, "CLASSIFICATION_TYPE": "U", "NORAD_CAT_ID": 66516, "ELEMENT_SET_NO": 999, "REV_AT_EPOCH": 553, "BSTAR": 0.00030194513, "MEAN_MOTION_DOT": 0.00012323, "MEAN_MOTION_DDOT": 0}, "tle": {"line1": "1 66516U 25265A   25350.25003472  .00012323  00000+0  30195-3 0  9993", "line2": "2 66516  43.0007  33.8930 0001360 253.6364 257.2486 15.40684171  5539"}}, "geometry": {"type": "Point", "coordinates": [-66.8699804232757, -42.794246299989595]}}, {"type": "Feature", "properties": {"norad_id": 66517, "name": "STARLINK-35937", "group": "last-30-days", "lat": 42.97863870013568, "lon": 118.85776309493158, "alt_km": 416.29977337722084, "timestamp": "2025-12-16T23:36:34.922193+00:00", "meta": {"OBJECT_NAME": "STARLINK-35937", "OBJECT_ID": "2025-265B", "EPOCH": "2025-12-16T06:11:45.451680", "MEAN_MOTION": 15.48668381, "ECCENTRICITY": 0.0002418, "INCLINATION": 42.9996, "RA_OF_ASC_NODE": 33.4472, "ARG_OF_PERICENTER": 272.4531, "MEAN_ANOMALY": 87.6052, "EPHEMERIS_TYPE": 0, "CLASSIFICATION_TYPE": "U", "NORAD_CAT_ID": 66517, "ELEMENT_SET_NO": 999, "REV_AT_EPOCH": 430, "BSTAR": -0.0036648679, "MEAN_MOTION_DOT": -0.00196333, "MEAN_MOTION_DDOT": 0}, "tle": {"line1": "1 66517U 25265B   25350.25816495 -.00196333  00000+0 -36649-2 0  9996", "line2": "2 66517  42.9996  33.4472 0002418 272.4531  87.6052 15.48668381  4303"}}, "geometry": {"type": "Point", "coordinates": [118.85776309493158, 42.97863870013568]}}, {"type": "Feature", "properties": {"norad_id": 66518, "name": "STARLINK-35962", "group": "last-30-days", "lat": 42.138067652591694, "lon": 133.04100754910726, "alt_km": 407.6436043219719, "timestamp": "2025-12-16T23:36:34.922206+00:00", "meta": {"OBJECT_NAME": "STARLINK-35962", "OBJECT_ID": "2025-265C", "EPOCH": "2025-12-14T10:53:57.808320", "MEAN_MOTION": 15.50609594, "ECCENTRICITY": 0.00017695, "INCLINATION": 43.0014, "RA_OF_ASC_NODE": 43.9914, "ARG_OF_PERICENTER": 290.7607, "MEAN_ANOMALY": 69.3063, "EPHEMERIS_TYPE": 0, "CLASSIFICATION_TYPE": "U", "NORAD_CAT_ID": 66518, "ELEMENT_SET_NO": 999, "REV_AT_EPOCH": 402, "BSTAR": 0.0018445082, "MEAN_MOTION_DOT": 0.00109513, "MEAN_MOTION_DDOT": 0}, "tle": {"line1": "1 66518U 25265C   25348.45414130  .00109513  00000+0  18445-2 0  9992", "line2": "2 66518  43.0014  43.9914 0001769 290.7607  69.3063 15.50609594  4021"}}, "geometry": {"type": "Point", "coordinates": [133.04100754910726, 42.138067652591694]}}, {"type": "Feature", "properties": {"norad_id": 66519, "name": "STARLINK-35931", "group": "last-30-days", "lat": 41.780550027285415, "lon": 135.6891349988293, "alt_km": 410.81894520134483, "timestamp": "2025-12-16T23:36:34.922218+00:00", "meta": {"OBJECT_NAME": "STARLINK-35931", "OBJECT_ID": "2025-265D", "EPOCH": "2025-12-15T13:09:50.374080", "MEAN_MOTION": 15.50650168, "ECCENTRICITY": 0.00049678, "INCLINATION": 43.0015, "RA_OF_ASC_NODE": 37.5821, "ARG_OF_PERICENTER": 281.452, "MEAN_ANOMALY": 78.5782, "EPHEMERIS_TYPE": 0, "CLASSIFICATION_TYPE": "U", "NORAD_CAT_ID": 66519, "ELEMENT_SET_NO": 999, "REV_AT_EPOCH": 419, "BSTAR": 0.0013394698, "MEAN_MOTION_DOT": 0.00079268, "MEAN_MOTION_DDOT": 0}, "tle": {"line1": "1 66519U 25265D   25349.54849970  .00079268  00000+0  13395-2 0  9990", "line2": "2 66519  43.0015  37.5821 0004967 281.4520  78.5782 15.50650168  4194"}}, "geometry": {"type": "Point", "coordinates": [135.6891349988293, 41.780550027285415]}}, {"type": "Feature", "properties": {"norad_id": 66520, "name": "STARLINK-35952", "group": "last-30-days", "lat": -28.8756590904145, "lon": -6.741587012809975, "alt_km": 446.40006957226706, "timestamp": "2025-12-16T23:36:34.922230+00:00", "meta": {"OBJECT_NAME": "STARLINK-35952", "OBJECT_ID": "2025-265E", "EPOCH": "2025-12-16T06:00:02.999808", "MEAN_MOTION": 15.40680958, "ECCENTRICITY": 9.465e-05, "INCLINATION": 43.0003, "RA_OF_ASC_NODE": 33.7721, "ARG_OF_PERICENTER": 246.5646, "MEAN_ANOMALY": 314.0854, "EPHEMERIS_TYPE": 0, "CLASSIFICATION_TYPE": "U", "NORAD_CAT_ID": 66520, "ELEMENT_SET_NO": 999, "REV_AT_EPOCH": 555, "BSTAR": 0.00025494521, "MEAN_MOTION_DOT": 0.00010354, "MEAN_MOTION_DDOT": 0}, "tle": {"line1": "1 66520U 25265E   25350.25003472  .00010354  00000+0  25495-3 0  9997", "line2": "2 66520  43.0003  33.7721 0000946 246.5646 314.0854 15.40680958  5552"}}, "geometry": {"type": "Point", "coordinates": [-6.741587012809975, -28.8756590904145]}}, {"type": "Feature", "properties": {"norad_id": 66521, "name": "STARLINK-35915", "group": "last-30-days", "lat": 41.08384484534805, "lon": 139.83219760467753, "alt_km": 410.55811808742965, "timestamp": "2025-12-16T23:36:34.922242+00:00", "meta": {"OBJECT_NAME": "STARLINK-35915", "OBJECT_ID": "2025-265F", "EPOCH": "2025-12-15T13:08:56.619456", "MEAN_MOTION": 15.50613283, "ECCENTRICITY": 0.00041789, "INCLINATION": 42.9978, "RA_OF_ASC_NODE": 37.5756, "ARG_OF_PERICENTER": 292.8181, "MEAN_ANOMALY": 67.2238, "EPHEMERIS_TYPE": 0, "CLASSIFICATION_TYPE": "U", "NORAD_CAT_ID": 66521, "ELEMENT_SET_NO": 999, "REV_AT_EPOCH": 419, "BSTAR": 0.0010696382, "MEAN_MOTION_DOT": 0.00063008, "MEAN_MOTION_DDOT": 0}, "tle": {"line1": "1 66521U 25265F   25349.54787754  .00063008  00000+0  10696-2 0  9990", "line2": "2 66521  42.9978  37.5756 0004178 292.8181  67.2238 15.50613283  4191"}}, "geometry": {"type": "Point", "coordinates": [139.83219760467753, 41.08384484534805]}}, {"type": "Feature", "properties": {"norad_id": 66522, "name": "STARLINK-35946", "group": "last-30-days", "lat": 40.58898596006925, "lon": 142.3168439128106, "alt_km": 408.9634592815646, "timestamp": "2025-12-16T23:36:34.922267+00:00", "meta": {"OBJECT_NAME": "STARLINK-35946", "OBJECT_ID": "2025-265G", "EPOCH": "2025-12-16T03:03:11.151360", "MEAN_MOTION": 15.50628679, "ECCENTRICITY": 0.00014256, "INCLINATION": 42.9976, "RA_OF_ASC_NODE": 34.1834, "ARG_OF_PERICENTER": 304.2198, "MEAN_ANOMALY": 55.8527, "EPHEMERIS_TYPE": 0, "CLASSIFICATION_TYPE": "U", "NORAD_CAT_ID": 66522, "ELEMENT_SET_NO": 999, "REV_AT_EPOCH": 428, "BSTAR": 0.0011852833, "MEAN_MOTION_DOT": 0.00069941, "MEAN_MOTION_DDOT": 0}, "tle": {"line1": "1 66522U 25265G   25350.12721240  .00069941  00000+0  11853-2 0  9993", "line2": "2 66522  42.9976  34.1834 0001425 304.2198  55.8527 15.50628679  4287"}}, "geometry": {"type": "Point", "coordinates": [142.3168439128106, 40.58898596006925]}}, {"type": "Feature", "properties": {"norad_id": 66523, "name": "STARLINK-35969", "group": "last-30-days", "lat": 40.00805870115898, "lon": 144.9305069837537, "alt_km": 412.9304307115872, "timestamp": "2025-12-16T23:36:34.922282+00:00", "meta": {"OBJECT_NAME": "STARLINK-35969", "OBJECT_ID": "2025-265H", "EPOCH": "2025-12-16T04:35:26.077920", "MEAN_MOTION": 15.50681242, "ECCENTRICITY": 0.00077889, "INCLINATION": 43.0038, "RA_OF_ASC_NODE": 33.8056, "ARG_OF_PERICENTER": 304.3945, "MEAN_ANOMALY": 55.6179, "EPHEMERIS_TYPE": 0, "CLASSIFICATION_TYPE": "U", "NORAD_CAT_ID": 66523, "ELEMENT_SET_NO": 999, "REV_AT_EPOCH": 429, "BSTAR": 0.0013806199, "MEAN_MOTION_DOT": 0.00081887, "MEAN_MOTION_DDOT": 0}, "tle": {"line1": "1 66523U 25265H   25350.19127405  .00081887  00000+0  13806-2 0  9997", "line2": "2 66523  43.0038  33.8056 0007788 304.3945  55.6179 15.50681242  4297"}}, "geometry": {"type": "Point", "coordinates": [144.9305069837537, 40.00805870115898]}}, {"type": "Feature", "properties": {"norad_id": 66524, "name": "STARLINK-35687", "group": "last-30-days", "lat": -39.82156251366789, "lon": -33.876020430175146, "alt_km": 446.39862425128103, "timestamp": "2025-12-16T23:36:34.922294+00:00", "meta": {"OBJECT_NAME": "STARLINK-35687", "OBJECT_ID": "2025-265J", "EPOCH": "2025-12-16T06:00:02.999808", "MEAN_MOTION": 15.40683325, "ECCENTRICITY": 0.00014953, "INCLINATION": 43.0006, "RA_OF_ASC_NODE": 33.831, "ARG_OF_PERICENTER": 255.2631, "MEAN_ANOMALY": 280.5042, "EPHEMERIS_TYPE": 0, "CLASSIFICATION_TYPE": "U", "NORAD_CAT_ID": 66524, "ELEMENT_SET_NO": 999, "REV_AT_EPOCH": 555, "BSTAR": 0.00029678501, "MEAN_MOTION_DOT": 0.00012107, "MEAN_MOTION_DDOT": 0}, "tle": {"line1": "1 66524U 25265J   25350.25003472  .00012107  00000+0  29679-3 0  9997", "line2": "2 66524  43.0006  33.8310 0001495 255.2631 280.5042 15.40683325  5552"}}, "geometry": {"type": "Point", "coordinates": [-33.876020430175146, -39.82156251366789]}}]}